NEONSAT-1               
1 59587U 24077A   26157.86546686  .00018107  00000+0  48159-3 0  9990
2 59587  97.3486 241.8648 0009588  77.1619 283.0697 15.38237864118144
ACS3                    
1 59588U 24077B   26157.58151596  .00054416  00000+0  40688-1 0  9992
2 59588  97.1687  78.7355 0047765  67.7110 292.9110 13.93749381106561
GSAT0225 (GALILEO 29)   
1 59598U 24079A   26157.55442147  .00000022  00000+0  00000+0 0  9993
2 59598  55.1131 101.3778 0001833 289.9052 250.1947  1.70474149 13134
GSAT0227 (GALILEO 30)   
1 59600U 24079C   26155.09799679  .00000011  00000+0  00000+0 0  9997
2 59600  55.1072 101.4444 0001821  42.0743 317.8998  1.70474129 13141
STARLINK-31770          
1 59601U 24080A   26157.57788113  .00001208  00000+0  53418-4 0  9991
2 59601  43.0017 256.2020 0000997 268.0777  91.9961 15.27586784119332
STARLINK-31778          
1 59602U 24080B   26152.80645245  .00004347  00000+0  16742-3 0  9996
2 59602  43.0009 279.7121 0001048 222.2492 137.8279 15.27578590117437
STARLINK-31776          
1 59603U 24080C   26157.57610573  .00003900  00000+0  15108-3 0  9991
2 59603  43.0000 259.6465 0001427 274.8203  85.2485 15.27601694118080
STARLINK-31765          
1 59604U 24080D   26157.54881043  .00001582  00000+0  66983-4 0  9993
2 59604  43.0015 252.5228 0001360 273.9499  86.1197 15.27594280118160
STARLINK-31767          
1 59605U 24080E   26157.57016021  .00002721  00000+0  10831-3 0  9999
2 59605  43.0004 256.1454 0000700 268.5754  91.5018 15.27599478118123
STARLINK-31782          
1 59606U 24080F   26157.58638845  .00001387  00000+0  59901-4 0  9994
2 59606  43.0020 259.7227 0001202 275.4845  84.5869 15.27587389118084
STARLINK-31755          
1 59607U 24080G   26157.59024146  .00001413  00000+0  60845-4 0  9998
2 59607  43.0007 259.7530 0000586 157.2468 202.8409 15.27590152118086
STARLINK-31585          
1 59608U 24080H   26156.99617377  .00000095  00000+0  12971-4 0  9998
2 59608  43.0029 255.2496 0001722 249.3009 110.7658 15.27576353118091
STARLINK-31667          
1 59609U 24080J   26157.39233831 -.00002413  00000+0 -78141-4 0  9992
2 59609  43.0047 253.0655 0002011 288.2680  71.7952 15.27597180118144
STARLINK-31729          
1 59610U 24080K   26157.57451019  .00001879  00000+0  77762-4 0  9995
2 59610  42.9995 252.7159 0000898 260.8186  99.2564 15.27589947118167
STARLINK-31448          
1 59611U 24080L   26157.55911858 -.00000981  00000+0 -26138-4 0  9992
2 59611  42.9992 252.5999 0000913 258.2564 101.8185 15.27565635118161
STARLINK-31748          
1 59612U 24080M   26157.53981814  .00004041  00000+0  15620-3 0  9992
2 59612  43.0026 252.4589 0001499 283.0438  77.0247 15.27603830119335
STARLINK-31746          
1 59613U 24080N   26157.59409227  .00001121  00000+0  50228-4 0  9992
2 59613  43.0027 259.7548 0000528 296.4223  63.6575 15.27588138118083
STARLINK-31762          
1 59614U 24080P   26157.56631197  .00004258  00000+0  16408-3 0  9998
2 59614  42.9990 256.1136 0000909 271.1666  88.9081 15.27596808118129
STARLINK-31768          
1 59616U 24080R   26157.56374730  .00003679  00000+0  14308-3 0  9990
2 59616  43.0003 256.0943 0001472 276.0315  84.0369 15.27594478118121
STARLINK-31769          
1 59617U 24080S   26157.58173626 -.00000253  00000+0  33241-6 0  9990
2 59617  43.0019 256.2317 0001645 269.1464  90.9200 15.27576543118129
STARLINK-31784          
1 59618U 24080T   26157.57996339  .00001377  00000+0  59560-4 0  9991
2 59618  43.0081 259.6760 0003107 282.2944  77.7559 15.27586580118089
STARLINK-31777          
1 59619U 24080U   26157.58381693  .00001404  00000+0  60519-4 0  9991
2 59619  43.0015 259.7024 0001383 271.3479  88.7214 15.27588114118082
STARLINK-31758          
1 59621U 24080W   26156.54746478  .00001747  00000+0  72990-4 0  9991
2 59621  42.9997 257.9058 0000907 287.1093  72.9660 15.27584670118013
STARLINK-31774          
1 59622U 24080X   26157.56550606  .00002600  00000+0  10391-3 0  9996
2 59622  43.0031 252.6485 0000797 271.6164  88.4596 15.27597482118166
STARLINK-31763          
1 59623U 24080Y   26156.99711944  .00000473  00000+0  26718-4 0  9994
2 59623  43.0065 259.5841 0001670 276.1514  83.9147 15.27579708118035
LEGION 1                
1 59625U 24081A   26157.80257003  .00004028  00000+0  20942-3 0  9991
2 59625  97.5013 235.7709 0010454  51.3567 308.8600 15.16594946115965
LEGION 2                
1 59626U 24081B   26157.83241344  .00004522  00000+0  23471-3 0  9995
2 59626  97.5013 235.8983 0011777  20.1765 339.9931 15.16574443115977
STARLINK-31749          
1 59631U 24082A   26157.27406816  .00001176  00000+0  52260-4 0  9998
2 59631  43.0039 359.2021 0001515 266.9334  93.1345 15.27583379118568
STARLINK-31781          
1 59632U 24082B   26157.23756380 -.00000073  00000+0  68715-5 0  9998
2 59632  43.0031 345.6290 0000277  25.9854 334.1011 15.27575341118559
STARLINK-31541          
1 59633U 24082C   26157.80837197  .00030172  00000+0  11043-2 0  9999
2 59633  43.0032 349.3958 0001862 235.8452 124.2223 15.27496152118713
