OBJECT_NAME,OBJECT_ID,EPOCH,MEAN_MOTION,ECCENTRICITY,INCLINATION,RA_OF_ASC_NODE,ARG_OF_PERICENTER,MEAN_ANOMALY,EPHEMERIS_TYPE,CLASSIFICATION_TYPE,NORAD_CAT_ID,ELEMENT_SET_NO,REV_AT_EPOCH,BSTAR,MEAN_MOTION_DOT,MEAN_MOTION_DDOT
NEONSAT-1,2024-077A,2026-06-06T20:46:16.336704,15.38237864,.0009588,97.3486,241.8648,77.1619,283.0697,0,U,59587,999,11814,.48159E-3,.18107E-3,0
ACS3,2024-077B,2026-06-06T13:57:22.978944,13.93749381,.0047765,97.1687,78.7355,67.7110,292.9110,0,U,59588,999,10656,.40688E-1,.54416E-3,0
GSAT0225 (GALILEO 29),2024-079A,2026-06-06T13:18:22.015008,1.70474149,.0001833,55.1131,101.3778,289.9052,250.1947,0,U,59598,999,1313,0,.22E-6,0
GSAT0227 (GALILEO 30),2024-079C,2026-06-04T02:21:06.922656,1.70474129,.00018215,55.1072,101.4444,42.0743,317.8998,0,U,59600,999,1314,0,.11E-6,0
STARLINK-31770,2024-080A,2026-06-06T13:52:08.929632,15.27586784,.0000997,43.0017,256.2020,268.0777,91.9961,0,U,59601,999,11933,.53418E-4,.1208E-4,0
STARLINK-31778,2024-080B,2026-06-01T19:21:17.491680,15.27578590,.00010486,43.0009,279.7121,222.2492,137.8279,0,U,59602,999,11743,.16741787E-3,.4347E-4,0
STARLINK-31776,2024-080C,2026-06-06T13:49:35.535072,15.27601694,.0001427,43.0000,259.6465,274.8203,85.2485,0,U,59603,999,11808,.15108E-3,.39E-4,0
STARLINK-31765,2024-080D,2026-06-06T13:10:17.221152,15.27594280,.000136,43.0015,252.5228,273.9499,86.1197,0,U,59604,999,11816,.66983E-4,.1582E-4,0
STARLINK-31767,2024-080E,2026-06-06T13:41:01.842144,15.27599478,.00007,43.0004,256.1454,268.5754,91.5018,0,U,59605,999,11812,.10831E-3,.2721E-4,0
STARLINK-31782,2024-080F,2026-06-06T14:04:23.962080,15.27587389,.0001202,43.0020,259.7227,275.4845,84.5869,0,U,59606,999,11808,.59901E-4,.1387E-4,0
STARLINK-31755,2024-080G,2026-06-06T14:09:56.862144,15.27590152,.0000586,43.0007,259.7530,157.2468,202.8409,0,U,59607,999,11808,.60845E-4,.1413E-4,0
STARLINK-31585,2024-080H,2026-06-05T23:54:29.413728,15.27576353,.0001722,43.0029,255.2496,249.3009,110.7658,0,U,59608,999,11809,.12971E-4,.95E-6,0
STARLINK-31667,2024-080J,2026-06-06T09:24:58.029984,15.27597180,.00020113,43.0047,253.0655,288.2680,71.7952,0,U,59609,999,11814,-.78140699E-4,-.2413E-4,0
STARLINK-31729,2024-080K,2026-06-06T13:47:17.680416,15.27589947,.0000898,42.9995,252.7159,260.8186,99.2564,0,U,59610,999,11816,.77762E-4,.1879E-4,0
STARLINK-31448,2024-080L,2026-06-06T13:25:07.845312,15.27565635,.0000913,42.9992,252.5999,258.2564,101.8185,0,U,59611,999,11816,-.26138E-4,-.981E-5,0
STARLINK-31748,2024-080M,2026-06-06T12:57:20.287296,15.27603830,.0001499,43.0026,252.4589,283.0438,77.0247,0,U,59612,999,11933,.1562E-3,.4041E-4,0
STARLINK-31746,2024-080N,2026-06-06T14:15:29.572128,15.27588138,.0000528,43.0027,259.7548,296.4223,63.6575,0,U,59613,999,11808,.50228E-4,.1121E-4,0
STARLINK-31762,2024-080P,2026-06-06T13:35:29.354208,15.27596808,.0000909,42.9990,256.1136,271.1666,88.9081,0,U,59614,999,11812,.16408E-3,.4258E-4,0
STARLINK-31768,2024-080R,2026-06-06T13:31:47.766720,15.27594478,.0001472,43.0003,256.0943,276.0315,84.0369,0,U,59616,999,11812,.14308E-3,.3679E-4,0
STARLINK-31769,2024-080S,2026-06-06T13:57:42.012864,15.27576543,.0001645,43.0019,256.2317,269.1464,90.9200,0,U,59617,999,11812,.33241E-6,-.253E-5,0
STARLINK-31784,2024-080T,2026-06-06T13:55:08.836896,15.27586580,.0003107,43.0081,259.6760,282.2944,77.7559,0,U,59618,999,11808,.5956E-4,.1377E-4,0
STARLINK-31777,2024-080U,2026-06-06T14:00:41.782752,15.27588114,.0001383,43.0015,259.7024,271.3479,88.7214,0,U,59619,999,11808,.60519E-4,.1404E-4,0
STARLINK-31758,2024-080W,2026-06-05T13:08:20.956992,15.27584670,.00009076,42.9997,257.9058,287.1093,72.9660,0,U,59621,999,11801,.72990451E-4,.1747E-4,0
STARLINK-31774,2024-080X,2026-06-06T13:34:19.723584,15.27597482,.0000797,43.0031,252.6485,271.6164,88.4596,0,U,59622,999,11816,.10391E-3,.26E-4,0
STARLINK-31763,2024-080Y,2026-06-05T23:55:51.119616,15.27579708,.000167,43.0065,259.5841,276.1514,83.9147,0,U,59623,999,11803,.26718E-4,.473E-5,0
LEGION 1,2024-081A,2026-06-06T19:15:42.050592,15.16594946,.0010454,97.5013,235.7709,51.3567,308.8600,0,U,59625,999,11596,.20942E-3,.4028E-4,0
LEGION 2,2024-081B,2026-06-06T19:58:40.521216,15.16574443,.0011777,97.5013,235.8983,20.1765,339.9931,0,U,59626,999,11597,.23471E-3,.4522E-4,0
STARLINK-31749,2024-082A,2026-06-06T06:34:39.489024,15.27583379,.00015153,43.0039,359.2021,266.9334,93.1345,0,U,59631,999,11856,.52259564E-4,.1176E-4,0
STARLINK-31781,2024-082B,2026-06-06T05:42:05.512320,15.27575341,.00002778,43.0031,345.6290,25.9854,334.1011,0,U,59632,999,11855,.687149E-5,-.73E-6,0
STARLINK-31541,2024-082C,2026-06-06T19:24:03.338208,15.27496152,.0001862,43.0032,349.3958,235.8452,124.2223,0,U,59633,999,11871,.11043E-2,.30172E-3,0
